{"type": "FeatureCollection", "features": [ {"type": "Feature", "properties": {"norad_id": 39122, "name": "EUTELSAT 117 WEST A", "group": "eutelsat", "lat": -0.03777242625157421, "lon": -131.48988500311538, "alt_km": 35778.54395149478, "timestamp": "2025-12-22T16:55:17.121712+00:00", "meta": {"OBJECT_NAME": "EUTELSAT 117 WEST A", "OBJECT_ID": "2013-012A", "EPOCH": "2025-12-22T04:32:38.645088", "MEAN_MOTION": 1.00270646, "ECCENTRICITY": 0.00026178, "INCLINATION": 0.0262, "RA_OF_ASC_NODE": 307.6522, "ARG_OF_PERICENTER": 325.8564, "MEAN_ANOMALY": 128.8634, "EPHEMERIS_TYPE": 0, "CLASSIFICATION_TYPE": "U", "NORAD_CAT_ID": 39122, "ELEMENT_SET_NO": 999, "REV_AT_EPOCH": 4665, "BSTAR": 0, "MEAN_MOTION_DOT": 9e-08, "MEAN_MOTION_DDOT": 0}, "tle": {"line1": "1 39122U 13012A   25356.18933617  .00000009  00000+0  00000+0 0  9990", "line2": "2 39122   0.0262 307.6522 0002617 325.8564 128.8634  1.00270646 46652"}}, "geometry": {"type": "Point", "coordinates": [-131.48988500311538, -0.03777242625157421]}}, {"type": "Feature", "properties": {"norad_id": 39163, "name": "EUTELSAT 7B", "group": "eutelsat", "lat": -0.017661989910249868, "lon": -7.6613468230211845, "alt_km": 35770.14258895031, "timestamp": "2025-12-22T16:55:17.121724+00:00", "meta": {"OBJECT_NAME": "EUTELSAT 7B", "OBJECT_ID": "2013-022A", "EPOCH": "2025-12-22T03:54:38.524896", "MEAN_MOTION": 1.0027115, "ECCENTRICITY": 0.00044245, "INCLINATION": 0.0652, "RA_OF_ASC_NODE": 2.8658, "ARG_OF_PERICENTER": 319.3694, "MEAN_ANOMALY": 194.3909, "EPHEMERIS_TYPE": 0, "CLASSIFICATION_TYPE": "U", "NORAD_CAT_ID": 39163, "ELEMENT_SET_NO": 999, "REV_AT_EPOCH": 4617, "BSTAR": 0, "MEAN_MOTION_DOT": 7e-07, "MEAN_MOTION_DDOT": 0}, "tle": {"line1": "1 39163U 13022A   25356.16294589  .00000070  00000+0  00000+0 0  9990", "line2": "2 39163   0.0652   2.8658 0004424 319.3694 194.3909  1.00271150 46175"}}, "geometry": {"type": "Point", "coordinates": [-7.6613468230211845, -0.017661989910249868]}}, {"type": "Feature", "properties": {"norad_id": 39612, "name": "EXPRESS-AT1", "group": "eutelsat", "lat": 0.035515909785968185, "lon": 41.30769848386672, "alt_km": 35786.30648904912, "timestamp": "2025-12-22T16:55:17.121736+00:00", "meta": {"OBJECT_NAME": "EXPRESS-AT1", "OBJECT_ID": "2014-010A", "EPOCH": "2025-12-22T01:26:53.727648", "MEAN_MOTION": 1.00271765, "ECCENTRICITY": 7.403e-05, "INCLINATION": 0.0237, "RA_OF_ASC_NODE": 345.2745, "ARG_OF_PERICENTER": 151.4807, "MEAN_ANOMALY": 31.835, "EPHEMERIS_TYPE": 0, "CLASSIFICATION_TYPE": "U", "NORAD_CAT_ID": 39612, "ELEMENT_SET_NO": 999, "REV_AT_EPOCH": 4304, "BSTAR": 0, "MEAN_MOTION_DOT": 0, "MEAN_MOTION_DDOT": 0}, "tle": {"line1": "1 39612U 14010A   25356.06034407  .00000000  00000+0  00000+0 0  9990", "line2": "2 39612   0.0237 345.2745 0000740 151.4807  31.8350  1.00271765 43042"}}, "geometry": {"type": "Point", "coordinates": [41.30769848386672, 0.035515909785968185]}}, {"type": "Feature", "properties": {"norad_id": 39613, "name": "EXPRESS-AT2", "group": "eutelsat", "lat": 0.010458381669354358, "lon": 125.16625639008018, "alt_km": 35791.07487194489, "timestamp": "2025-12-22T16:55:17.121749+00:00", "meta": {"OBJECT_NAME": "EXPRESS-AT2", "OBJECT_ID": "2014-010B", "EPOCH": "2025-12-22T06:58:58.643328", "MEAN_MOTION": 1.00273903, "ECCENTRICITY": 0.00014346, "INCLINATION": 0.0181, "RA_OF_ASC_NODE": 293.052, "ARG_OF_PERICENTER": 347.9573, "MEAN_ANOMALY": 54.6827, "EPHEMERIS_TYPE": 0, "CLASSIFICATION_TYPE": "U", "NORAD_CAT_ID": 39613, "ELEMENT_SET_NO": 999, "REV_AT_EPOCH": 4272, "BSTAR": 0, "MEAN_MOTION_DOT": -2.59e-06, "MEAN_MOTION_DDOT": 0}, "tle": {"line1": "1 39613U 14010B   25356.29095652 -.00000259  00000+0  00000+0 0  9992", "line2": "2 39613   0.0181 293.0520 0001434 347.9573  54.6827  1.00273903 42727"}}, "geometry": {"type": "Point", "coordinates": [125.16625639008018, 0.010458381669354358]}}, {"type": "Feature", "properties": {"norad_id": 39773, "name": "EUTELSAT 3B", "group": "eutelsat", "lat": -0.0307635084691386, "lon": -11.534164229758028, "alt_km": 35792.91974677765, "timestamp": "2025-12-22T16:55:17.121761+00:00", "meta": {"OBJECT_NAME": "EUTELSAT 3B", "OBJECT_ID": "2014-030A", "EPOCH": "2025-12-22T01:11:47.674176", "MEAN_MOTION": 1.00272787, "ECCENTRICITY": 0.00041421, "INCLINATION": 0.0612, "RA_OF_ASC_NODE": 10.0984, "ARG_OF_PERICENTER": 223.9018, "MEAN_ANOMALY": 237.9083, "EPHEMERIS_TYPE": 0, "CLASSIFICATION_TYPE": "U", "NORAD_CAT_ID": 39773, "ELEMENT_SET_NO": 999, "REV_AT_EPOCH": 4229, "BSTAR": 0, "MEAN_MOTION_DOT": 4.2e-07, "MEAN_MOTION_DDOT": 0}, "tle": {"line1": "1 39773U 14030A   25356.04985734  .00000042  00000+0  00000+0 0  9992", "line2": "2 39773   0.0612  10.0984 0004142 223.9018 237.9083  1.00272787 42291"}}, "geometry": {"type": "Point", "coordinates": [-11.534164229758028, -0.0307635084691386]}}, {"type": "Feature", "properties": {"norad_id": 40425, "name": "EUTELSAT 115 WEST B", "group": "eutelsat", "lat": 0.00707042287194425, "lon": -129.5929769062286, "alt_km": 35786.213248559194, "timestamp": "2025-12-22T16:55:17.121773+00:00", "meta": {"OBJECT_NAME": "EUTELSAT 115 WEST B", "OBJECT_ID": "2015-010B", "EPOCH": "2025-12-21T14:21:48.555360", "MEAN_MOTION": 1.00270264, "ECCENTRICITY": 3.32e-05, "INCLINATION": 0.0122, "RA_OF_ASC_NODE": 156.3186, "ARG_OF_PERICENTER": 153.7711, "MEAN_ANOMALY": 240.874, "EPHEMERIS_TYPE": 0, "CLASSIFICATION_TYPE": "U", "NORAD_CAT_ID": 40425, "ELEMENT_SET_NO": 999, "REV_AT_EPOCH": 3961, "BSTAR": 0, "MEAN_MOTION_DOT": -2e-08, "MEAN_MOTION_DDOT": 0}, "tle": {"line1": "1 40425U 15010B   25355.59847865 -.00000002  00000+0  00000+0 0  9995", "line2": "2 40425   0.0122 156.3186 0000332 153.7711 240.8740  1.00270264 39611"}}, "geometry": {"type": "Point", "coordinates": [-129.5929769062286, 0.00707042287194425]}}, {"type": "Feature", "properties": {"norad_id": 40875, "name": "EUTELSAT 8 WEST B", "group": "eutelsat", "lat": -0.03873849656488921, "lon": -22.634815331095027, "alt_km": 35778.72444165971, "timestamp": "2025-12-22T16:55:17.121785+00:00", "meta": {"OBJECT_NAME": "EUTELSAT 8 WEST B", "OBJECT_ID": "2015-039B", "EPOCH": "2025-12-22T06:16:47.683200", "MEAN_MOTION": 1.00271154, "ECCENTRICITY": 0.00042547, "INCLINATION": 0.0635, "RA_OF_ASC_NODE": 2.3398, "ARG_OF_PERICENTER": 269.6982, "MEAN_ANOMALY": 265.2311, "EPHEMERIS_TYPE": 0, "CLASSIFICATION_TYPE": "U", "NORAD_CAT_ID": 40875, "ELEMENT_SET_NO": 999, "REV_AT_EPOCH": 3788, "BSTAR": 0, "MEAN_MOTION_DOT": -4.4e-07, "MEAN_MOTION_DDOT": 0}, "tle": {"line1": "1 40875U 15039B   25356.26166300 -.00000044  00000+0  00000+0 0  9994", "line2": "2 40875   0.0635   2.3398 0004254 269.6982 265.2311  1.00271154 37889"}}, "geometry": {"type": "Point", "coordinates": [-22.634815331095027, -0.03873849656488921]}}, {"type": "Feature", "properties": {"norad_id": 41310, "name": "EUTELSAT 9B", "group": "eutelsat", "lat": -0.06898624335924111, "lon": -5.624663544803499, "alt_km": 35781.78224902355, "timestamp": "2025-12-22T16:55:17.121796+00:00", "meta": {"OBJECT_NAME": "EUTELSAT 9B", "OBJECT_ID": "2016-005A", "EPOCH": "2025-12-22T03:54:38.524896", "MEAN_MOTION": 1.00273048, "ECCENTRICITY": 0.0004511, "INCLINATION": 0.0657, "RA_OF_ASC_NODE": 72.7349, "ARG_OF_PERICENTER": 203.4472, "MEAN_ANOMALY": 242.4516, "EPHEMERIS_TYPE": 0, "CLASSIFICATION_TYPE": "U", "NORAD_CAT_ID": 41310, "ELEMENT_SET_NO": 999, "REV_AT_EPOCH": 3634, "BSTAR": 0, "MEAN_MOTION_DOT": 8.4e-07, "MEAN_MOTION_DDOT": 0}, "tle": {"line1": "1 41310U 16005A   25356.16294589  .00000084  00000+0  00000+0 0  9996", "line2": "2 41310   0.0657  72.7349 0004511 203.4472 242.4516  1.00273048 36349"}}, "geometry": {"type": "Point", "coordinates": [-5.624663544803499, -0.06898624335924111]}}, {"type": "Feature", "properties": {"norad_id": 41382, "name": "EUTELSAT 65 WEST A", "group": "eutelsat", "lat": -0.06548980127372643, "lon": -79.86548623119387, "alt_km": 35776.57386090424, "timestamp": "2025-12-22T16:55:17.121827+00:00", "meta": {"OBJECT_NAME": "EUTELSAT 65 WEST A", "OBJECT_ID": "2016-014A", "EPOCH": "2025-12-22T06:19:42.019392", "MEAN_MOTION": 1.00273317, "ECCENTRICITY": 0.00021684, "INCLINATION": 0.0512, "RA_OF_ASC_NODE": 336.4422, "ARG_OF_PERICENTER": 297.6662, "MEAN_ANOMALY": 206.6972, "EPHEMERIS_TYPE": 0, "CLASSIFICATION_TYPE": "U", "NORAD_CAT_ID": 41382, "ELEMENT_SET_NO": 999, "REV_AT_EPOCH": 3576, "BSTAR": 0, "MEAN_MOTION_DOT": -2.54e-06, "MEAN_MOTION_DDOT": 0}, "tle": {"line1": "1 41382U 16014A   25356.26368078 -.00000254  00000+0  00000+0 0  9991", "line2": "2 41382   0.0512 336.4422 0002168 297.6662 206.6972  1.00273317 35764"}}, "geometry": {"type": "Point", "coordinates": [-79.86548623119387, -0.06548980127372643]}}, {"type": "Feature", "properties": {"norad_id": 41589, "name": "EUTELSAT 117 WEST B", "group": "eutelsat", "lat": 0.0053598965610988725, "lon": -131.69364570123662, "alt_km": 35787.83079912433, "timestamp": "2025-12-22T16:55:17.121857+00:00", "meta": {"OBJECT_NAME": "EUTELSAT 117 WEST B", "OBJECT_ID": "2016-038B", "EPOCH": "2025-12-22T04:32:38.645088", "MEAN_MOTION": 1.00265736, "ECCENTRICITY": 5.026e-05, "INCLINATION": 0.0093, "RA_OF_ASC_NODE": 137.6378, "ARG_OF_PERICENTER": 182.9214, "MEAN_ANOMALY": 81.6025, "EPHEMERIS_TYPE": 0, "CLASSIFICATION_TYPE": "U", "NORAD_CAT_ID": 41589, "ELEMENT_SET_NO": 999, "REV_AT_EPOCH": 3488, "BSTAR": 0, "MEAN_MOTION_DOT": 1.1e-07, "MEAN_MOTION_DDOT": 0}, "tle": {"line1": "1 41589U 16038B   25356.18933617  .00000011  00000+0  00000+0 0  9994", "line2": "2 41589   0.0093 137.6378 0000502 182.9214  81.6025  1.00265736 34885"}}, "geometry": {"type": "Point", "coordinates": [-131.69364570123662, 0.0053598965610988725]}}]}